{
  "type": "FeatureCollection",
  "features": [
    { "type": "Feature", "properties": { "place": "A", "y2021": 12, "y2022": 18, "y2023": 31, "y2024": 29 }, "geometry": { "type": "Point", "coordinates": [-0.115, 51.506] } },
    { "type": "Feature", "properties": { "place": "A", "y2021": 15, "y2022": 22, "y2023": 36, "y2024": 33 }, "geometry": { "type": "Point", "coordinates": [-0.116, 51.507] } },
    { "type": "Feature", "properties": { "place": "B", "y2021": 40, "y2022": 35, "y2023": 28, "y2024": 21 }, "geometry": { "type": "Point", "coordinates": [-0.088, 51.514] } },
    { "type": "Feature", "properties": { "place": "B", "y2021": 44, "y2022": 39, "y2023": 26, "y2024": 19 }, "geometry": { "type": "Point", "coordinates": [-0.089, 51.515] } },
    { "type": "Feature", "properties": { "place": "C", "y2021": 16, "y2022": 19, "y2023": 17, "y2024": 23 }, "geometry": { "type": "Point", "coordinates": [-0.14, 51.52] } }
  ]
}
